[{"OBJECT_NAME":"DAMPE","OBJECT_ID":"2015-078A","EPOCH":"2026-03-09T23:55:00.527232","MEAN_MOTION":15.30502084,"ECCENTRICITY":0.00138005,"INCLINATION":97.4588,"RA_OF_ASC_NODE":73.9866,"ARG_OF_PERICENTER":70.6942,"MEAN_ANOMALY":289.579,"EPHEMERIS_TYPE":0,"CLASSIFICATION_TYPE":"U","NORAD_CAT_ID":41173,"ELEMENT_SET_NO":999,"REV_AT_EPOCH":56937,"BSTAR":9.1158173e-5,"MEAN_MOTION_DOT":2.617e-5,"MEAN_MOTION_DDOT":0},{"OBJECT_NAME":"STARLINK-34137","OBJECT_ID":"2025-099B","EPOCH":"2026-03-09T08:22:49.596096","MEAN_MOTION":15.27594804,"ECCENTRICITY":8.534e-5,"INCLINATION":43.0034,"RA_OF_ASC_NODE":178.2024,"ARG_OF_PERICENTER":278.3603,"MEAN_ANOMALY":81.7152,"EPHEMERIS_TYPE":0,"CLASSIFICATION_TYPE":"U","NORAD_CAT_ID":63953,"ELEMENT_SET_NO":999,"REV_AT_EPOCH":4728,"BSTAR":0.0009667544,"MEAN_MOTION_DOT":0.00026448,"MEAN_MOTION_DDOT":0}]
